[{"OBJECT_NAME":"ONEWEB-0141","OBJECT_ID":"2020-100AF","EPOCH":"2026-01-31T00:24:33.146784","MEAN_MOTION":13.1244352,"ECCENTRICITY":0.00021017,"INCLINATION":87.8943,"RA_OF_ASC_NODE":17.8734,"ARG_OF_PERICENTER":87.4589,"MEAN_ANOMALY":272.6781,"EPHEMERIS_TYPE":0,"CLASSIFICATION_TYPE":"U","NORAD_CAT_ID":47287,"ELEMENT_SET_NO":999,"REV_AT_EPOCH":24668,"BSTAR":0.001021335,"MEAN_MOTION_DOT":3.8e-6,"MEAN_MOTION_DDOT":0},{"OBJECT_NAME":"ONEWEB-0142","OBJECT_ID":"2020-100AG","EPOCH":"2026-01-31T00:07:52.282272","MEAN_MOTION":13.12441789,"ECCENTRICITY":0.00020901,"INCLINATION":87.8939,"RA_OF_ASC_NODE":17.9004,"ARG_OF_PERICENTER":95.0283,"MEAN_ANOMALY":265.1084,"EPHEMERIS_TYPE":0,"CLASSIFICATION_TYPE":"U","NORAD_CAT_ID":47288,"ELEMENT_SET_NO":999,"REV_AT_EPOCH":24667,"BSTAR":-2.4156114e-5,"MEAN_MOTION_DOT":4.0e-8,"MEAN_MOTION_DDOT":0},{"OBJECT_NAME":"ONEWEB-0143","OBJECT_ID":"2020-100AH","EPOCH":"2026-01-31T05:51:39.619584","MEAN_MOTION":13.12439672,"ECCENTRICITY":0.0001658,"INCLINATION":87.8942,"RA_OF_ASC_NODE":17.8485,"ARG_OF_PERICENTER":87.8526,"MEAN_ANOMALY":272.2793,"EPHEMERIS_TYPE":0,"CLASSIFICATION_TYPE":"U","NORAD_CAT_ID":47289,"ELEMENT_SET_NO":999,"REV_AT_EPOCH":24668,"BSTAR":0.0040968921,"MEAN_MOTION_DOT":1.487e-5,"MEAN_MOTION_DDOT":0},{"OBJECT_NAME":"ONEWEB-0144","OBJECT_ID":"2020-100AJ","EPOCH":"2026-01-31T06:59:57.087744","MEAN_MOTION":13.12442182,"ECCENTRICITY":0.0001802,"INCLINATION":87.8945,"RA_OF_ASC_NODE":17.8085,"ARG_OF_PERICENTER":98.1158,"MEAN_ANOMALY":262.0175,"EPHEMERIS_TYPE":0,"CLASSIFICATION_TYPE":"U","NORAD_CAT_ID":47290,"ELEMENT_SET_NO":999,"REV_AT_EPOCH":24661,"BSTAR":-0.0010627501,"MEAN_MOTION_DOT":-3.7e-6,"MEAN_MOTION_DDOT":0},{"OBJECT_NAME":"ONEWEB-0145","OBJECT_ID":"2020-100AK","EPOCH":"2026-01-30T22:59:22.107264","MEAN_MOTION":13.12441571,"ECCENTRICITY":0.0001782,"INCLINATION":87.8945,"RA_OF_ASC_NODE":17.9138,"ARG_OF_PERICENTER":89.2541,"MEAN_ANOMALY":270.8792,"EPHEMERIS_TYPE":0,"CLASSIFICATION_TYPE":"U","NORAD_CAT_ID":47291,"ELEMENT_SET_NO":999,"REV_AT_EPOCH":24676,"BSTAR":0.00076262,"MEAN_MOTION_DOT":2.87e-6,"MEAN_MOTION_DDOT":0},{"OBJECT_NAME":"ONEWEB-0146","OBJECT_ID":"2020-100AL","EPOCH":"2026-01-30T22:54:29.752992","MEAN_MOTION":13.12442908,"ECCENTRICITY":0.0001708,"INCLINATION":87.8943,"RA_OF_ASC_NODE":17.8998,"ARG_OF_PERICENTER":75.5248,"MEAN_ANOMALY":284.607,"EPHEMERIS_TYPE":0,"CLASSIFICATION_TYPE":"U","NORAD_CAT_ID":47292,"ELEMENT_SET_NO":999,"REV_AT_EPOCH":24667,"BSTAR":0.0010097,"MEAN_MOTION_DOT":3.76e-6,"MEAN_MOTION_DDOT":0},{"OBJECT_NAME":"ONEWEB-0147","OBJECT_ID":"2020-100AM","EPOCH":"2026-01-30T23:55:28.019712","MEAN_MOTION":13.1244259,"ECCENTRICITY":0.00015137,"INCLINATION":87.8939,"RA_OF_ASC_NODE":17.8703,"ARG_OF_PERICENTER":89.5819,"MEAN_ANOMALY":270.5483,"EPHEMERIS_TYPE":0,"CLASSIFICATION_TYPE":"U","NORAD_CAT_ID":47293,"ELEMENT_SET_NO":999,"REV_AT_EPOCH":24657,"BSTAR":-0.00066235011,"MEAN_MOTION_DOT":-2.26e-6,"MEAN_MOTION_DDOT":0},{"OBJECT_NAME":"ONEWEB-0115","OBJECT_ID":"2021-025A","EPOCH":"2026-01-31T06:49:46.410816","MEAN_MOTION":13.13469207,"ECCENTRICITY":0.00017741,"INCLINATION":87.9028,"RA_OF_ASC_NODE":347.426,"ARG_OF_PERICENTER":79.0573,"MEAN_ANOMALY":281.0756,"EPHEMERIS_TYPE":0,"CLASSIFICATION_TYPE":"U","NORAD_CAT_ID":48042,"ELEMENT_SET_NO":999,"REV_AT_EPOCH":23562,"BSTAR":-0.00060505752,"MEAN_MOTION_DOT":-2.08e-6,"MEAN_MOTION_DDOT":0},{"OBJECT_NAME":"ONEWEB-0152","OBJECT_ID":"2021-025B","EPOCH":"2026-01-31T07:09:18.021600","MEAN_MOTION":13.13471214,"ECCENTRICITY":0.00017089,"INCLINATION":87.9021,"RA_OF_ASC_NODE":347.4269,"ARG_OF_PERICENTER":77.0848,"MEAN_ANOMALY":283.0472,"EPHEMERIS_TYPE":0,"CLASSIFICATION_TYPE":"U","NORAD_CAT_ID":48043,"ELEMENT_SET_NO":999,"REV_AT_EPOCH":23558,"BSTAR":-0.00020756551,"MEAN_MOTION_DOT":-6.3e-7,"MEAN_MOTION_DDOT":0},{"OBJECT_NAME":"ONEWEB-0153","OBJECT_ID":"2021-025C","EPOCH":"2026-01-31T06:37:35.940288","MEAN_MOTION":13.13469239,"ECCENTRICITY":0.0001821,"INCLINATION":87.9023,"RA_OF_ASC_NODE":347.4376,"ARG_OF_PERICENTER":83.2198,"MEAN_ANOMALY":276.9139,"EPHEMERIS_TYPE":0,"CLASSIFICATION_TYPE":"U","NORAD_CAT_ID":48044,"ELEMENT_SET_NO":999,"REV_AT_EPOCH":23557,"BSTAR":-0.0004483923,"MEAN_MOTION_DOT":-1.51e-6,"MEAN_MOTION_DDOT":0},{"OBJECT_NAME":"ONEWEB-0154","OBJECT_ID":"2021-025D","EPOCH":"2026-01-31T06:32:43.372608","MEAN_MOTION":13.13470977,"ECCENTRICITY":0.00016875,"INCLINATION":87.9025,"RA_OF_ASC_NODE":347.4352,"ARG_OF_PERICENTER":80.8047,"MEAN_ANOMALY":279.3273,"EPHEMERIS_TYPE":0,"CLASSIFICATION_TYPE":"U","NORAD_CAT_ID":48045,"ELEMENT_SET_NO":999,"REV_AT_EPOCH":23553,"BSTAR":-0.00021083782,"MEAN_MOTION_DOT":-6.4e-7,"MEAN_MOTION_DDOT":0},{"OBJECT_NAME":"ONEWEB-0116","OBJECT_ID":"2021-025E","EPOCH":"2026-01-31T07:28:47.932032","MEAN_MOTION":13.13470782,"ECCENTRICITY":0.00017331,"INCLINATION":87.9027,"RA_OF_ASC_NODE":347.4136,"ARG_OF_PERICENTER":76.6029,"MEAN_ANOMALY":283.5293,"EPHEMERIS_TYPE":0,"CLASSIFICATION_TYPE":"U","NORAD_CAT_ID":48046,"ELEMENT_SET_NO":999,"REV_AT_EPOCH":23568,"BSTAR":0.00082603753,"MEAN_MOTION_DOT":3.14e-6,"MEAN_MOTION_DDOT":0},{"OBJECT_NAME":"ONEWEB-0150","OBJECT_ID":"2021-025F","EPOCH":"2026-01-31T06:54:39.659328","MEAN_MOTION":13.13469839,"ECCENTRICITY":0.00019756,"INCLINATION":87.9031,"RA_OF_ASC_NODE":347.4147,"ARG_OF_PERICENTER":80.4471,"MEAN_ANOMALY":279.6881,"EPHEMERIS_TYPE":0,"CLASSIFICATION_TYPE":"U","NORAD_CAT_ID":48047,"ELEMENT_SET_NO":999,"REV_AT_EPOCH":23557,"BSTAR":-0.00058781617,"MEAN_MOTION_DOT":-2.02e-6,"MEAN_MOTION_DDOT":0},{"OBJECT_NAME":"ONEWEB-0107","OBJECT_ID":"2021-025G","EPOCH":"2026-01-31T06:57:06.625728","MEAN_MOTION":13.13471627,"ECCENTRICITY":0.00018596,"INCLINATION":87.9029,"RA_OF_ASC_NODE":347.4104,"ARG_OF_PERICENTER":88.7544,"MEAN_ANOMALY":271.3798,"EPHEMERIS_TYPE":0,"CLASSIFICATION_TYPE":"U","NORAD_CAT_ID":48048,"ELEMENT_SET_NO":999,"REV_AT_EPOCH":23555,"BSTAR":-0.00057420258,"MEAN_MOTION_DOT":-1.97e-6,"MEAN_MOTION_DDOT":0},{"OBJECT_NAME":"ONEWEB-0101","OBJECT_ID":"2021-025H","EPOCH":"2026-01-31T06:03:28.908288","MEAN_MOTION":13.1346988,"ECCENTRICITY":0.00016851,"INCLINATION":87.902,"RA_OF_ASC_NODE":347.4475,"ARG_OF_PERICENTER":85.5791,"MEAN_ANOMALY":274.5531,"EPHEMERIS_TYPE":0,"CLASSIFICATION_TYPE":"U","NORAD_CAT_ID":48049,"ELEMENT_SET_NO":999,"REV_AT_EPOCH":23552,"BSTAR":0.00099761045,"MEAN_MOTION_DOT":3.77e-6,"MEAN_MOTION_DDOT":0},{"OBJECT_NAME":"ONEWEB-0113","OBJECT_ID":"2021-025J","EPOCH":"2026-01-31T05:59:00.963744","MEAN_MOTION":13.13972359,"ECCENTRICITY":0.00017601,"INCLINATION":87.9025,"RA_OF_ASC_NODE":347.3711,"ARG_OF_PERICENTER":75.979,"MEAN_ANOMALY":284.1535,"EPHEMERIS_TYPE":0,"CLASSIFICATION_TYPE":"U","NORAD_CAT_ID":48050,"ELEMENT_SET_NO":999,"REV_AT_EPOCH":23562,"BSTAR":0.00094445075,"MEAN_MOTION_DOT":3.6e-6,"MEAN_MOTION_DDOT":0}]
