ONEWEB-0141             
1 47287U 20100AF  26031.01705031  .00000380  00000+0  10213-2 0  9999
2 47287  87.8943  17.8734 0002101  87.4589 272.6781 13.12443520246688
ONEWEB-0142             
1 47288U 20100AG  26031.00546623  .00000004  00000+0 -24156-4 0  9996
2 47288  87.8939  17.9004 0002090  95.0283 265.1084 13.12441789246675
ONEWEB-0143             
1 47289U 20100AH  26031.24420856  .00001487  00000+0  40969-2 0  9995
2 47289  87.8942  17.8485 0001658  87.8526 272.2793 13.12439672246685
ONEWEB-0144             
1 47290U 20100AJ  26031.29163296 -.00000370  00000+0 -10628-2 0  9995
2 47290  87.8945  17.8085 0001802  98.1158 262.0175 13.12442182246617
ONEWEB-0145             
1 47291U 20100AK  26030.95789476  .00000287  00000+0  76262-3 0  9994
2 47291  87.8945  17.9138 0001782  89.2541 270.8792 13.12441571246761
ONEWEB-0146             
1 47292U 20100AL  26030.95451103  .00000376  00000+0  10097-2 0  9990
2 47292  87.8943  17.8998 0001708  75.5248 284.6070 13.12442908246670
ONEWEB-0147             
1 47293U 20100AM  26030.99685208 -.00000226  00000+0 -66235-3 0  9992
2 47293  87.8939  17.8703 0001513  89.5819 270.5483 13.12442590246571
ONEWEB-0115             
1 48042U 21025A   26031.28456494 -.00000208  00000+0 -60506-3 0  9993
2 48042  87.9028 347.4260 0001774  79.0573 281.0756 13.13469207235623
ONEWEB-0152             
1 48043U 21025B   26031.29812525 -.00000063  00000+0 -20757-3 0  9999
2 48043  87.9021 347.4269 0001708  77.0848 283.0472 13.13471214235589
ONEWEB-0153             
1 48044U 21025C   26031.27611042 -.00000151  00000+0 -44839-3 0  9994
2 48044  87.9023 347.4376 0001821  83.2198 276.9139 13.13469239235578
ONEWEB-0154             
1 48045U 21025D   26031.27272422 -.00000064  00000+0 -21084-3 0  9990
2 48045  87.9025 347.4352 0001687  80.8047 279.3273 13.13470977235534
ONEWEB-0116             
1 48046U 21025E   26031.31166588  .00000314  00000+0  82604-3 0  9992
2 48046  87.9027 347.4136 0001733  76.6029 283.5293 13.13470782235681
ONEWEB-0150             
1 48047U 21025F   26031.28795902 -.00000202  00000+0 -58782-3 0  9995
2 48047  87.9031 347.4147 0001975  80.4471 279.6881 13.13469839235579
ONEWEB-0107             
1 48048U 21025G   26031.28966002 -.00000197  00000+0 -57420-3 0  9998
2 48048  87.9029 347.4104 0001859  88.7544 271.3798 13.13471627235555
ONEWEB-0101             
1 48049U 21025H   26031.25241792  .00000377  00000+0  99761-3 0  9990
2 48049  87.9020 347.4475 0001685  85.5791 274.5531 13.13469880235529
ONEWEB-0113             
1 48050U 21025J   26031.24931671  .00000360  00000+0  94445-3 0  9999
2 48050  87.9025 347.3711 0001760  75.9790 284.1535 13.13972359235626
